OBJECT_NAME,OBJECT_ID,EPOCH,MEAN_MOTION,ECCENTRICITY,INCLINATION,RA_OF_ASC_NODE,ARG_OF_PERICENTER,MEAN_ANOMALY,EPHEMERIS_TYPE,CLASSIFICATION_TYPE,NORAD_CAT_ID,ELEMENT_SET_NO,REV_AT_EPOCH,BSTAR,MEAN_MOTION_DOT,MEAN_MOTION_DDOT
SXM-7,2020-096A,2026-06-04T04:22:38.760384,1.00270789,.00043568,0.0328,102.8944,23.0716,107.1739,0,U,47240,999,731,0,-.193E-5,0
IPM 2 & BREEZE-M R/B,2020-097A,2026-06-03T20:20:43.980000,0.95297521,.00834938,5.3269,76.8805,279.0528,79.7390,0,U,47242,999,1914,0,-.59E-6,0
CMS-01,2020-099A,2026-06-04T01:58:44.257152,1.00271294,.00034854,0.0672,103.7923,182.5918,78.8358,0,U,47256,999,2006,0,-.153E-5,0
ONEWEB-0102,2020-100A,2026-06-04T00:30:29.203776,13.12442743,.00014706,87.8941,353.2947,88.0745,272.0552,0,U,47258,999,26300,-.12268145E-3,-.31E-6,0
ONEWEB-0109,2020-100B,2026-06-04T00:42:40.800960,13.12442532,.00017028,87.8950,353.2753,92.3931,267.7393,0,U,47259,999,26283,-.81651902E-3,-.281E-5,0
ONEWEB-0110,2020-100C,2026-06-04T01:21:43.031520,13.12445006,.00015792,87.8948,353.2540,80.4782,279.6525,0,U,47260,999,26300,-.13426453E-3,-.36E-6,0
ONEWEB-0111,2020-100D,2026-06-04T02:05:37.221504,13.12443204,.00017833,87.8952,353.2671,81.7044,278.4286,0,U,47261,999,26284,.72422815E-3,.273E-5,0
ONEWEB-0114,2020-100E,2026-06-04T02:49:31.994688,13.12444979,.00017941,87.8952,353.2577,102.1340,257.9989,0,U,47262,999,26280,-.12150565E-2,-.424E-5,0
ONEWEB-0117,2020-100F,2026-06-04T00:47:33.389376,13.12442029,.00017561,87.8949,353.2664,87.5133,272.6197,0,U,47263,999,26280,-.98416113E-3,-.341E-5,0
ONEWEB-0118,2020-100G,2026-06-04T01:36:21.081888,13.12444017,.00019981,87.8949,353.2623,95.6634,264.4722,0,U,47264,999,26300,.94845799E-3,.354E-5,0
ONEWEB-0119,2020-100H,2026-06-04T02:12:57.110688,13.12442538,.00016214,87.8938,353.2750,82.8912,277.2401,0,U,47265,999,26298,.1244531E-2,.46E-5,0
ONEWEB-0120,2020-100J,2026-06-04T02:47:18.149856,13.12444416,.00016368,87.8940,353.2711,96.3351,263.7964,0,U,47266,999,26301,-.11734436E-2,-.409E-5,0
ONEWEB-0121,2020-100K,2026-06-04T00:40:14.484288,13.12441884,.00018903,87.8952,353.2738,78.4200,281.7141,0,U,47267,999,26291,-.71744896E-3,-.245E-5,0
ONEWEB-0122,2020-100L,2026-06-04T02:21:29.690784,13.12440849,.0001517,87.8959,353.2651,93.8363,266.2939,0,U,47268,999,26283,-.14802342E-3,-.41E-6,0
ONEWEB-0123,2020-100M,2026-06-04T00:25:36.869376,13.12442645,.00018346,87.8942,353.2893,89.7977,270.3362,0,U,47269,999,26296,.30643126E-3,.123E-5,0
ONEWEB-0124,2020-100N,2026-06-04T02:00:45.803808,13.12442880,.00018461,87.8939,353.2785,86.0860,274.0479,0,U,47270,999,26285,.94311443E-3,.352E-5,0
ONEWEB-0125,2020-100P,2026-06-04T01:29:02.513760,13.12444591,.00021434,87.8954,353.2654,86.6977,273.4397,0,U,47271,999,26291,-.11289172E-3,-.28E-6,0
ONEWEB-0126,2020-100Q,2026-06-04T01:58:31.304928,13.12441755,.00017341,87.8947,353.2777,90.7451,269.3876,0,U,47272,999,26298,.10559697E-2,.393E-5,0
ONEWEB-0127,2020-100R,2026-06-04T01:09:30.731040,13.12443998,.0001726,87.8940,353.2838,89.1351,270.9976,0,U,47273,999,26300,-.82383105E-3,-.284E-5,0
ONEWEB-0128,2020-100S,2026-06-04T01:41:13.746336,13.12443205,.00015736,87.8940,353.2936,83.1746,276.9562,0,U,47274,999,26302,.10849983E-2,.403E-5,0
ONEWEB-0129,2020-100T,2026-06-04T01:11:56.989824,13.12443154,.00017884,87.8950,353.2699,125.4258,234.7038,0,U,47275,999,26295,-.79620951E-3,-.274E-5,0
ONEWEB-0130,2020-100U,2026-06-04T01:51:00.261504,13.12442784,.0001773,87.8950,353.2595,97.4158,262.7172,0,U,47276,999,26292,.10893578E-2,.405E-5,0
ONEWEB-0131,2020-100V,2026-06-04T01:46:06.961152,13.12443390,.00017266,87.8940,353.2793,87.5242,272.6085,0,U,47277,999,26296,.11752484E-2,.436E-5,0
ONEWEB-0132,2020-100W,2026-06-04T02:27:35.514432,13.12441733,.00017412,87.8943,353.2754,85.9109,274.2219,0,U,47278,999,26286,-.67107403E-3,-.229E-5,0
ONEWEB-0133,2020-100X,2026-06-04T01:01:59.640096,13.12444798,.00016248,87.8953,353.2614,92.2123,267.9192,0,U,47279,999,26301,-.75316062E-3,-.258E-5,0
ONEWEB-0134,2020-100Y,2026-06-04T02:08:04.220736,13.12443049,.00015235,87.8954,353.2502,93.0759,267.0544,0,U,47280,999,26299,.73556716E-3,.277E-5,0
ONEWEB-0135,2020-100Z,2026-06-04T01:26:35.789280,13.12445507,.00014495,87.8938,353.2798,87.2940,272.8355,0,U,47281,999,26301,.29416706E-3,.119E-5,0
ONEWEB-0136,2020-100AA,2026-06-04T01:53:26.231712,13.12442963,.00014676,87.8953,353.2569,92.4524,267.6773,0,U,47282,999,26294,.1155187E-2,.428E-5,0
ONEWEB-0137,2020-100AB,2026-06-04T00:52:25.941504,13.12443580,.00019272,87.8958,353.2740,97.4121,262.7227,0,U,47283,999,26284,-.10338224E-2,-.359E-5,0
ONEWEB-0138,2020-100AC,2026-06-04T00:20:44.066688,13.12441887,.0001684,87.8955,353.2859,99.7039,260.4280,0,U,47284,999,26292,.37014208E-3,.146E-5,0
